OBJECT_NAME,OBJECT_ID,EPOCH,MEAN_MOTION,ECCENTRICITY,INCLINATION,RA_OF_ASC_NODE,ARG_OF_PERICENTER,MEAN_ANOMALY,EPHEMERIS_TYPE,CLASSIFICATION_TYPE,NORAD_CAT_ID,ELEMENT_SET_NO,REV_AT_EPOCH,BSTAR,MEAN_MOTION_DOT,MEAN_MOTION_DDOT
HIBER-2,2018-099S,2023-06-13T21:36:19.275840,15.02126646,.0014663,97.5962,228.9235,126.2019,234.0564,0,U,43774,999,24718,.57878E-3,.7571E-4,0
SPAWAR-CAL-R,2018-099U,2023-06-14T03:30:51.058656,14.97270637,.0014962,97.5702,225.7340,130.5155,229.7373,0,U,43776,999,24707,.13227E-3,.1479E-4,0
SPAWAR-CAL-OR,2018-099W,2023-06-13T21:25:01.280352,14.99669506,.0013865,97.5579,224.4972,140.1450,220.0794,0,U,43778,999,24670,.38469E-3,.4695E-4,0
MOVE-II,2018-099Y,2023-06-13T04:16:02.416800,15.03670085,.0010096,97.5728,228.2883,158.0362,202.1298,0,U,43780,999,24713,.6772E-3,.9231E-4,0
SNUSAT-2,2018-099AA,2023-06-14T02:54:56.131200,14.99711084,.0015001,97.5735,227.2504,118.6459,241.6275,0,U,43782,999,24717,.43663E-3,.5345E-4,0
KAZSTSAT,2018-099AB,2023-06-13T21:12:49.220064,14.94974516,.0008781,97.5800,224.0445,133.7264,226.4686,0,U,43783,999,24678,.9246E-4,.956E-5,0
SNUGLITE,2018-099AC,2023-06-14T09:45:09.846144,15.00330930,.0011256,97.5748,227.2040,128.5307,231.6928,0,U,43784,999,24725,.35874E-3,.4448E-4,0
ORBWEAVER 2,2018-099AD,2023-06-13T22:10:32.748960,15.08076424,.0018095,97.5692,230.5436,111.2388,249.0775,0,U,43785,999,24695,.10732E-2,.1657E-3,0
ITASAT 1,2018-099AE,2023-06-14T03:47:35.100096,14.99485014,.0013726,97.5748,227.8119,133.2669,226.9702,0,U,43786,999,24719,.30356E-3,.3674E-4,0
KAZSCISAT-1,2018-099AF,2023-06-13T09:38:43.554336,15.03255585,.0009065,97.5541,226.9019,135.5080,224.6875,0,U,43787,999,24720,.63497E-3,.8554E-4,0
EAGLET-I,2018-099AJ,2023-06-14T11:10:37.252416,14.99090155,.0014576,97.5774,228.5785,127.6891,232.5657,0,U,43790,999,24697,.3174E-3,.3805E-4,0
ESEO,2018-099AL,2023-06-13T14:51:57.809376,14.97626014,.0013534,97.5695,226.2410,133.3300,226.9053,0,U,43792,999,24685,.13048E-3,.1471E-4,0
CSIM-FD,2018-099AM,2023-06-14T03:20:27.675744,15.04116218,.0017207,97.5757,230.5465,135.7858,224.4746,0,U,43793,999,24712,.68773E-3,.9508E-4,0
HAWK-B,2018-099AN,2023-06-14T02:57:04.325472,14.99378993,.001672,97.5712,228.4467,130.5104,229.7579,0,U,43794,999,24727,.33605E-3,.4066E-4,0
ORBWEAVER 1,2018-099AP,2023-06-13T22:44:57.568992,15.09105917,.000401,97.5742,232.6293,101.6906,258.4773,0,U,43795,999,24749,.10834E-2,.17145E-3,0
THEA,2018-099AQ,2023-06-13T02:59:48.836256,15.01333083,.0012507,97.5945,228.7091,126.9338,233.3034,0,U,43796,999,24715,.46518E-3,.5942E-4,0
SKYSAT-C12,2018-099AR,2023-06-14T10:01:26.560128,15.38749388,.0002778,97.0763,226.1054,314.2383,45.8635,0,U,43797,999,25314,.34486E-3,.13138E-3,0
ASTROCAST 0.1,2018-099AS,2023-06-13T09:52:46.826976,15.02547646,.0013219,97.5824,229.1873,116.2101,244.0485,0,U,43798,999,24720,.61244E-3,.8102E-4,0
HAWK-C,2018-099AT,2023-06-14T02:56:45.223296,14.99381737,.0016618,97.5710,228.3466,130.2472,230.0208,0,U,43799,999,24727,.33886E-3,.4101E-4,0
ICEYE-X2,2018-099AU,2023-06-14T10:55:55.347744,14.99490589,.0015984,97.5767,227.7734,123.3527,236.9229,0,U,43800,999,24722,.38325E-3,.4658E-4,0
SKYSAT-C13,2018-099AW,2023-06-13T21:40:19.912800,15.42853017,.0011296,97.1030,226.2223,86.3497,273.9042,0,U,43802,999,25261,.39842E-3,.17445E-3,0
JY1SAT (JO-97),2018-099AX,2023-06-14T02:45:52.993152,15.00809887,.0014925,97.5704,227.7605,102.3190,257.9706,0,U,43803,999,24723,.47264E-3,.596E-4,0
SUOMI-100,2018-099AY,2023-06-13T23:27:44.143200,15.00458408,.001938,97.5673,227.4341,119.0692,241.2476,0,U,43804,999,24721,.4421E-3,.5528E-4,0
AL-FARABI 2,2018-099AZ,2023-06-13T02:59:13.801920,15.02163786,.0012917,97.5607,227.6257,117.0707,243.1838,0,U,43805,999,24714,.58689E-3,.7682E-4,0
EUCROPIS,2018-099BB,2023-06-14T00:17:51.807552,15.00009367,.0010873,97.5829,228.4099,118.2127,242.0196,0,U,43807,999,24662,.31437E-3,.3857E-4,0
POLAR SCOUT YUKON,2018-099BC,2023-06-14T09:35:08.125440,15.01102481,.0010337,97.5978,229.4280,151.3665,208.8129,0,U,43808,999,24699,.49136E-3,.6239E-4,0
CENTAURI-1,2018-099BD,2023-06-14T10:05:06.389376,14.99350053,.001398,97.5727,227.9351,129.8381,230.4075,0,U,43809,999,24695,.25558E-3,.3073E-4,0
NEXTSAT-1,2018-099BF,2023-06-14T03:57:48.988512,14.98246588,.0013359,97.5723,227.1936,129.6844,230.5559,0,U,43811,999,24674,.22646E-3,.2638E-4,0
GLOBAL-2,2018-099BG,2023-06-14T09:52:36.427008,14.98475987,.0013835,97.5702,227.0296,128.6043,231.6421,0,U,43812,999,24681,.17769E-3,.207E-4,0
BRIO,2018-099BH,2023-06-13T23:23:19.683168,15.03596771,.0010398,97.6144,232.5579,115.8593,244.3706,0,U,43813,999,24701,.64325E-3,.8748E-4,0
FALCONSAT-6,2018-099BK,2023-06-14T02:48:14.741856,15.06568387,.0027764,97.6148,233.0677,130.9551,229.4085,0,U,43815,999,24707,.13392E-3,.1935E-4,0
