HIBER-2                 
1 43774U 18099S   23164.90022310  .00007571  00000+0  57878-3 0  9992
2 43774  97.5962 228.9235 0014663 126.2019 234.0564 15.02126646247186
SPAWAR-CAL-R            
1 43776U 18099U   23165.14642429  .00001479  00000+0  13227-3 0  9991
2 43776  97.5702 225.7340 0014962 130.5155 229.7373 14.97270637247073
SPAWAR-CAL-OR           
1 43778U 18099W   23164.89237593  .00004695  00000+0  38469-3 0  9994
2 43778  97.5579 224.4972 0013865 140.1450 220.0794 14.99669506246709
MOVE-II                 
1 43780U 18099Y   23164.17780575  .00009231  00000+0  67720-3 0  9994
2 43780  97.5728 228.2883 0010096 158.0362 202.1298 15.03670085247132
SNUSAT-2                
1 43782U 18099AA  23165.12148300  .00005345  00000+0  43663-3 0  9998
2 43782  97.5735 227.2504 0015001 118.6459 241.6275 14.99711084247177
KAZSTSAT                
1 43783U 18099AB  23164.88390301  .00000956  00000+0  92460-4 0  9994
2 43783  97.5800 224.0445 0008781 133.7264 226.4686 14.94974516246788
SNUGLITE                
1 43784U 18099AC  23165.40636396  .00004448  00000+0  35874-3 0  9996
2 43784  97.5748 227.2040 0011256 128.5307 231.6928 15.00330930247251
ORBWEAVER 2             
1 43785U 18099AD  23164.92399015  .00016570  00000+0  10732-2 0  9991
2 43785  97.5692 230.5436 0018095 111.2388 249.0775 15.08076424246954
ITASAT 1                
1 43786U 18099AE  23165.15804514  .00003674  00000+0  30356-3 0  9999
2 43786  97.5748 227.8119 0013726 133.2669 226.9702 14.99485014247195
KAZSCISAT-1             
1 43787U 18099AF  23164.40189299  .00008554  00000+0  63497-3 0  9997
2 43787  97.5541 226.9019 0009065 135.5080 224.6875 15.03255585247201
EAGLET-I                
1 43790U 18099AJ  23165.46570894  .00003805  00000+0  31740-3 0  9993
2 43790  97.5774 228.5785 0014576 127.6891 232.5657 14.99090155246979
ESEO                    
1 43792U 18099AL  23164.61941909  .00001471  00000+0  13048-3 0  9998
2 43792  97.5695 226.2410 0013534 133.3300 226.9053 14.97626014246856
CSIM-FD                 
1 43793U 18099AM  23165.13920921  .00009508  00000+0  68773-3 0  9992
2 43793  97.5757 230.5465 0017207 135.7858 224.4746 15.04116218247121
HAWK-B                  
1 43794U 18099AN  23165.12296673  .00004066  00000+0  33605-3 0  9992
2 43794  97.5712 228.4467 0016720 130.5104 229.7579 14.99378993247278
ORBWEAVER 1             
1 43795U 18099AP  23164.94788853  .00017145  00000+0  10834-2 0  9998
2 43795  97.5742 232.6293 0004010 101.6906 258.4773 15.09105917247499
THEA                    
1 43796U 18099AQ  23164.12487079  .00005942  00000+0  46518-3 0  9996
2 43796  97.5945 228.7091 0012507 126.9338 233.3034 15.01333083247150
SKYSAT-C12              
1 43797U 18099AR  23165.41766852  .00013138  00000+0  34486-3 0  9996
2 43797  97.0763 226.1054 0002778 314.2383  45.8635 15.38749388253144
ASTROCAST 0.1           
1 43798U 18099AS  23164.41165309  .00008102  00000+0  61244-3 0  9993
2 43798  97.5824 229.1873 0013219 116.2101 244.0485 15.02547646247200
HAWK-C                  
1 43799U 18099AT  23165.12274564  .00004101  00000+0  33886-3 0  9993
2 43799  97.5710 228.3466 0016618 130.2472 230.0208 14.99381737247274
ICEYE-X2                
1 43800U 18099AU  23165.45550171  .00004658  00000+0  38325-3 0  9993
2 43800  97.5767 227.7734 0015984 123.3527 236.9229 14.99490589247228
SKYSAT-C13              
1 43802U 18099AW  23164.90300825  .00017445  00000+0  39842-3 0  9996
2 43802  97.1030 226.2223 0011296  86.3497 273.9042 15.42853017252613
JY1SAT (JO-97)          
1 43803U 18099AX  23165.11519668  .00005960  00000+0  47264-3 0  9994
2 43803  97.5704 227.7605 0014925 102.3190 257.9706 15.00809887247238
SUOMI-100               
1 43804U 18099AY  23164.97759425  .00005528  00000+0  44210-3 0  9993
2 43804  97.5673 227.4341 0019380 119.0692 241.2476 15.00458408247217
AL-FARABI 2             
1 43805U 18099AZ  23164.12446530  .00007682  00000+0  58689-3 0  9999
2 43805  97.5607 227.6257 0012917 117.0707 243.1838 15.02163786247146
EUCROPIS                
1 43807U 18099BB  23165.01240518  .00003857  00000+0  31437-3 0  9990
2 43807  97.5829 228.4099 0010873 118.2127 242.0196 15.00009367246624
POLAR SCOUT YUKON       
1 43808U 18099BC  23165.39939960  .00006239  00000+0  49136-3 0  9990
2 43808  97.5978 229.4280 0010337 151.3665 208.8129 15.01102481246991
CENTAURI-1              
1 43809U 18099BD  23165.42021284  .00003073  00000+0  25558-3 0  9991
2 43809  97.5727 227.9351 0013980 129.8381 230.4075 14.99350053246951
NEXTSAT-1               
1 43811U 18099BF  23165.16515033  .00002638  00000+0  22646-3 0  9996
2 43811  97.5723 227.1936 0013359 129.6844 230.5559 14.98246588246744
GLOBAL-2                
1 43812U 18099BG  23165.41153272  .00002070  00000+0  17769-3 0  9998
2 43812  97.5702 227.0296 0013835 128.6043 231.6421 14.98475987246814
BRIO                    
1 43813U 18099BH  23164.97453337  .00008748  00000+0  64325-3 0  9992
2 43813  97.6144 232.5579 0010398 115.8593 244.3706 15.03596771247012
FALCONSAT-6             
1 43815U 18099BK  23165.11683729  .00001935  00000+0  13392-3 0  9990
2 43815  97.6148 233.0677 0027764 130.9551 229.4085 15.06568387247075
